[{"OBJECT_NAME":"ONEWEB-0248","OBJECT_ID":"2021-045AH","EPOCH":"2025-12-07T21:42:13.953024","MEAN_MOTION":13.15550473,"ECCENTRICITY":0.00021576,"INCLINATION":87.8996,"RA_OF_ASC_NODE":297.3482,"ARG_OF_PERICENTER":64.7381,"MEAN_ANOMALY":295.3973,"EPHEMERIS_TYPE":0,"CLASSIFICATION_TYPE":"U","NORAD_CAT_ID":48798,"ELEMENT_SET_NO":999,"REV_AT_EPOCH":21926,"BSTAR":-0.00020594557,"MEAN_MOTION_DOT":-6.5e-7,"MEAN_MOTION_DDOT":0},{"OBJECT_NAME":"ONEWEB-0225","OBJECT_ID":"2021-045AJ","EPOCH":"2025-12-07T22:14:11.032512","MEAN_MOTION":13.15549497,"ECCENTRICITY":0.00023913,"INCLINATION":87.8983,"RA_OF_ASC_NODE":297.368,"ARG_OF_PERICENTER":72.9805,"MEAN_ANOMALY":287.1587,"EPHEMERIS_TYPE":0,"CLASSIFICATION_TYPE":"U","NORAD_CAT_ID":48799,"ELEMENT_SET_NO":999,"REV_AT_EPOCH":21927,"BSTAR":-0.00030188798,"MEAN_MOTION_DOT":-1.01e-6,"MEAN_MOTION_DDOT":0},{"OBJECT_NAME":"ONEWEB-0215","OBJECT_ID":"2021-045AK","EPOCH":"2025-12-07T21:30:50.019264","MEAN_MOTION":13.15549567,"ECCENTRICITY":0.0002417,"INCLINATION":87.9003,"RA_OF_ASC_NODE":297.3341,"ARG_OF_PERICENTER":68.2884,"MEAN_ANOMALY":291.8503,"EPHEMERIS_TYPE":0,"CLASSIFICATION_TYPE":"U","NORAD_CAT_ID":48800,"ELEMENT_SET_NO":999,"REV_AT_EPOCH":21914,"BSTAR":-0.00022349014,"MEAN_MOTION_DOT":-7.1e-7,"MEAN_MOTION_DDOT":0},{"OBJECT_NAME":"ONEWEB-0216","OBJECT_ID":"2021-045AL","EPOCH":"2025-12-07T21:44:31.672032","MEAN_MOTION":13.1554897,"ECCENTRICITY":0.00019942,"INCLINATION":87.8986,"RA_OF_ASC_NODE":297.3641,"ARG_OF_PERICENTER":83.9941,"MEAN_ANOMALY":276.1417,"EPHEMERIS_TYPE":0,"CLASSIFICATION_TYPE":"U","NORAD_CAT_ID":48801,"ELEMENT_SET_NO":999,"REV_AT_EPOCH":21915,"BSTAR":-0.00024461652,"MEAN_MOTION_DOT":-7.9e-7,"MEAN_MOTION_DDOT":0},{"OBJECT_NAME":"ONEWEB-0239","OBJECT_ID":"2021-045AM","EPOCH":"2025-12-07T21:51:21.492288","MEAN_MOTION":13.15550446,"ECCENTRICITY":0.00023057,"INCLINATION":87.8985,"RA_OF_ASC_NODE":297.3777,"ARG_OF_PERICENTER":61.0014,"MEAN_ANOMALY":299.1347,"EPHEMERIS_TYPE":0,"CLASSIFICATION_TYPE":"U","NORAD_CAT_ID":48802,"ELEMENT_SET_NO":999,"REV_AT_EPOCH":21919,"BSTAR":-0.00036429614,"MEAN_MOTION_DOT":-1.24e-6,"MEAN_MOTION_DDOT":0},{"OBJECT_NAME":"ONEWEB-0249","OBJECT_ID":"2021-060A","EPOCH":"2025-12-07T20:15:00.161568","MEAN_MOTION":13.1659486,"ECCENTRICITY":0.00018503,"INCLINATION":87.904,"RA_OF_ASC_NODE":266.8795,"ARG_OF_PERICENTER":72.3876,"MEAN_ANOMALY":287.7457,"EPHEMERIS_TYPE":0,"CLASSIFICATION_TYPE":"U","NORAD_CAT_ID":48967,"ELEMENT_SET_NO":999,"REV_AT_EPOCH":21443,"BSTAR":-1.4821992e-5,"MEAN_MOTION_DOT":7.0e-8,"MEAN_MOTION_DDOT":0},{"OBJECT_NAME":"ONEWEB-0250","OBJECT_ID":"2021-060B","EPOCH":"2025-12-07T20:16:41.374848","MEAN_MOTION":13.25819606,"ECCENTRICITY":0.00015813,"INCLINATION":87.9043,"RA_OF_ASC_NODE":265.2613,"ARG_OF_PERICENTER":39.2961,"MEAN_ANOMALY":320.829,"EPHEMERIS_TYPE":0,"CLASSIFICATION_TYPE":"U","NORAD_CAT_ID":48968,"ELEMENT_SET_NO":999,"REV_AT_EPOCH":21486,"BSTAR":0.00010959472,"MEAN_MOTION_DOT":6.1e-7,"MEAN_MOTION_DDOT":0},{"OBJECT_NAME":"ONEWEB-0252","OBJECT_ID":"2021-060D","EPOCH":"2025-12-07T21:00:35.138016","MEAN_MOTION":13.16592946,"ECCENTRICITY":0.00019273,"INCLINATION":87.9042,"RA_OF_ASC_NODE":266.8665,"ARG_OF_PERICENTER":80.7032,"MEAN_ANOMALY":279.4317,"EPHEMERIS_TYPE":0,"CLASSIFICATION_TYPE":"U","NORAD_CAT_ID":48970,"ELEMENT_SET_NO":999,"REV_AT_EPOCH":21448,"BSTAR":0.00010057106,"MEAN_MOTION_DOT":5.1e-7,"MEAN_MOTION_DDOT":0},{"OBJECT_NAME":"ONEWEB-0253","OBJECT_ID":"2021-060E","EPOCH":"2025-12-07T18:55:11.907264","MEAN_MOTION":13.16596318,"ECCENTRICITY":0.00019087,"INCLINATION":87.9041,"RA_OF_ASC_NODE":266.8883,"ARG_OF_PERICENTER":72.3047,"MEAN_ANOMALY":287.8293,"EPHEMERIS_TYPE":0,"CLASSIFICATION_TYPE":"U","NORAD_CAT_ID":48971,"ELEMENT_SET_NO":999,"REV_AT_EPOCH":21440,"BSTAR":0.00030853196,"MEAN_MOTION_DOT":1.31e-6,"MEAN_MOTION_DDOT":0},{"OBJECT_NAME":"ONEWEB-0254","OBJECT_ID":"2021-060F","EPOCH":"2025-12-07T19:08:52.361664","MEAN_MOTION":13.16597043,"ECCENTRICITY":0.00019883,"INCLINATION":87.905,"RA_OF_ASC_NODE":266.8779,"ARG_OF_PERICENTER":66.7683,"MEAN_ANOMALY":293.3657,"EPHEMERIS_TYPE":0,"CLASSIFICATION_TYPE":"U","NORAD_CAT_ID":48972,"ELEMENT_SET_NO":999,"REV_AT_EPOCH":21440,"BSTAR":0.00015761699,"MEAN_MOTION_DOT":7.3e-7,"MEAN_MOTION_DDOT":0},{"OBJECT_NAME":"ONEWEB-0255","OBJECT_ID":"2021-060G","EPOCH":"2025-12-07T20:03:35.095968","MEAN_MOTION":13.16594653,"ECCENTRICITY":0.0001895,"INCLINATION":87.9039,"RA_OF_ASC_NODE":266.8868,"ARG_OF_PERICENTER":68.9527,"MEAN_ANOMALY":291.1807,"EPHEMERIS_TYPE":0,"CLASSIFICATION_TYPE":"U","NORAD_CAT_ID":48973,"ELEMENT_SET_NO":999,"REV_AT_EPOCH":21448,"BSTAR":-0.0001289575,"MEAN_MOTION_DOT":-3.6e-7,"MEAN_MOTION_DDOT":0},{"OBJECT_NAME":"ONEWEB-0256","OBJECT_ID":"2021-060H","EPOCH":"2025-12-07T18:51:47.712960","MEAN_MOTION":13.16594597,"ECCENTRICITY":0.00017098,"INCLINATION":87.903,"RA_OF_ASC_NODE":266.9052,"ARG_OF_PERICENTER":78.4545,"MEAN_ANOMALY":281.6778,"EPHEMERIS_TYPE":0,"CLASSIFICATION_TYPE":"U","NORAD_CAT_ID":48974,"ELEMENT_SET_NO":999,"REV_AT_EPOCH":21444,"BSTAR":0.00040928313,"MEAN_MOTION_DOT":1.69e-6,"MEAN_MOTION_DDOT":0},{"OBJECT_NAME":"ONEWEB-0257","OBJECT_ID":"2021-060J","EPOCH":"2025-12-07T19:38:31.219296","MEAN_MOTION":13.1659526,"ECCENTRICITY":0.00019255,"INCLINATION":87.9045,"RA_OF_ASC_NODE":266.8766,"ARG_OF_PERICENTER":73.7588,"MEAN_ANOMALY":286.3755,"EPHEMERIS_TYPE":0,"CLASSIFICATION_TYPE":"U","NORAD_CAT_ID":48975,"ELEMENT_SET_NO":999,"REV_AT_EPOCH":21440,"BSTAR":-9.52153e-5,"MEAN_MOTION_DOT":-2.4e-7,"MEAN_MOTION_DDOT":0},{"OBJECT_NAME":"ONEWEB-0258","OBJECT_ID":"2021-060K","EPOCH":"2025-12-07T19:40:48.240192","MEAN_MOTION":13.16595328,"ECCENTRICITY":0.0001663,"INCLINATION":87.904,"RA_OF_ASC_NODE":266.892,"ARG_OF_PERICENTER":71.61,"MEAN_ANOMALY":288.5212,"EPHEMERIS_TYPE":0,"CLASSIFICATION_TYPE":"U","NORAD_CAT_ID":48976,"ELEMENT_SET_NO":999,"REV_AT_EPOCH":21441,"BSTAR":-4.0522132e-5,"MEAN_MOTION_DOT":-3.0e-8,"MEAN_MOTION_DDOT":0},{"OBJECT_NAME":"ONEWEB-0259","OBJECT_ID":"2021-060L","EPOCH":"2025-12-07T19:31:40.898784","MEAN_MOTION":13.1659512,"ECCENTRICITY":0.00018718,"INCLINATION":87.9046,"RA_OF_ASC_NODE":266.8868,"ARG_OF_PERICENTER":70.0206,"MEAN_ANOMALY":290.1127,"EPHEMERIS_TYPE":0,"CLASSIFICATION_TYPE":"U","NORAD_CAT_ID":48977,"ELEMENT_SET_NO":999,"REV_AT_EPOCH":21444,"BSTAR":6.0671646e-5,"MEAN_MOTION_DOT":3.6e-7,"MEAN_MOTION_DDOT":0},{"OBJECT_NAME":"ONEWEB-0260","OBJECT_ID":"2021-060M","EPOCH":"2025-12-07T19:19:09.153984","MEAN_MOTION":13.16594159,"ECCENTRICITY":0.00019244,"INCLINATION":87.9034,"RA_OF_ASC_NODE":266.9028,"ARG_OF_PERICENTER":86.9414,"MEAN_ANOMALY":273.1937,"EPHEMERIS_TYPE":0,"CLASSIFICATION_TYPE":"U","NORAD_CAT_ID":48978,"ELEMENT_SET_NO":999,"REV_AT_EPOCH":21442,"BSTAR":6.633295e-5,"MEAN_MOTION_DOT":3.8e-7,"MEAN_MOTION_DDOT":0},{"OBJECT_NAME":"ONEWEB-0261","OBJECT_ID":"2021-060N","EPOCH":"2025-12-07T20:25:15.140352","MEAN_MOTION":13.16593108,"ECCENTRICITY":0.00021541,"INCLINATION":87.9032,"RA_OF_ASC_NODE":266.8957,"ARG_OF_PERICENTER":72.858,"MEAN_ANOMALY":287.2787,"EPHEMERIS_TYPE":0,"CLASSIFICATION_TYPE":"U","NORAD_CAT_ID":48979,"ELEMENT_SET_NO":999,"REV_AT_EPOCH":21448,"BSTAR":2.6019451e-5,"MEAN_MOTION_DOT":2.3e-7,"MEAN_MOTION_DDOT":0}]
