ONEWEB-0248             
1 48798U 21045AH  25341.90432816 -.00000065  00000+0 -20595-3 0  9992
2 48798  87.8996 297.3482 0002157  64.7381 295.3973 13.15550473219266
ONEWEB-0225             
1 48799U 21045AJ  25341.92651658 -.00000101  00000+0 -30189-3 0  9993
2 48799  87.8983 297.3680 0002391  72.9805 287.1587 13.15549497219270
ONEWEB-0215             
1 48800U 21045AK  25341.89641226 -.00000071  00000+0 -22349-3 0  9997
2 48800  87.9003 297.3341 0002417  68.2884 291.8503 13.15549567219149
ONEWEB-0216             
1 48801U 21045AL  25341.90592213 -.00000079  00000+0 -24462-3 0  9997
2 48801  87.8986 297.3641 0001994  83.9941 276.1417 13.15548970219157
ONEWEB-0239             
1 48802U 21045AM  25341.91066542 -.00000124  00000+0 -36430-3 0  9999
2 48802  87.8985 297.3777 0002305  61.0014 299.1347 13.15550446219194
ONEWEB-0249             
1 48967U 21060A   25341.84375187  .00000007  00000+0 -14822-4 0  9999
2 48967  87.9040 266.8795 0001850  72.3876 287.7457 13.16594860214431
ONEWEB-0250             
1 48968U 21060B   25341.84492332  .00000061  00000+0  10959-3 0  9997
2 48968  87.9043 265.2613 0001581  39.2961 320.8290 13.25819606214864
ONEWEB-0252             
1 48970U 21060D   25341.87540669  .00000051  00000+0  10057-3 0  9998
2 48970  87.9042 266.8665 0001927  80.7032 279.4317 13.16592946214486
ONEWEB-0253             
1 48971U 21060E   25341.78833226  .00000131  00000+0  30853-3 0  9998
2 48971  87.9041 266.8883 0001908  72.3047 287.8293 13.16596318214405
ONEWEB-0254             
1 48972U 21060F   25341.79782826  .00000073  00000+0  15762-3 0  9996
2 48972  87.9050 266.8779 0001988  66.7683 293.3657 13.16597043214403
ONEWEB-0255             
1 48973U 21060G   25341.83582287 -.00000036  00000+0 -12896-3 0  9997
2 48973  87.9039 266.8868 0001895  68.9527 291.1807 13.16594653214483
ONEWEB-0256             
1 48974U 21060H   25341.78596890  .00000169  00000+0  40928-3 0  9999
2 48974  87.9030 266.9052 0001709  78.4545 281.6778 13.16594597214445
ONEWEB-0257             
1 48975U 21060J   25341.81841689 -.00000024  00000+0 -95215-4 0  9995
2 48975  87.9045 266.8766 0001925  73.7588 286.3755 13.16595260214409
ONEWEB-0258             
1 48976U 21060K   25341.82000278 -.00000003  00000+0 -40522-4 0  9996
2 48976  87.9040 266.8920 0001663  71.6100 288.5212 13.16595328214411
ONEWEB-0259             
1 48977U 21060L   25341.81366781  .00000036  00000+0  60672-4 0  9992
2 48977  87.9046 266.8868 0001871  70.0206 290.1127 13.16595120214447
ONEWEB-0260             
1 48978U 21060M   25341.80496706  .00000038  00000+0  66333-4 0  9995
2 48978  87.9034 266.9028 0001924  86.9414 273.1937 13.16594159214429
ONEWEB-0261             
1 48979U 21060N   25341.85086968  .00000023  00000+0  26019-4 0  9997
2 48979  87.9032 266.8957 0002154  72.8580 287.2787 13.16593108214480
